{
  "type": "FeatureCollection",
  "features": [
    {
      "type": "Feature",
      "properties": {
        "norad_id": 34481,
        "name": "COSMOS 2251 DEB",
        "group": "cosmos-2251-debris",
        "lat": 73.94154213242687,
        "lon": 132.19465885202558,
        "alt_km": 801.125198315437,
        "timestamp": "2025-12-20T18:51:32.107681+00:00",
        "meta_object_name": "COSMOS 2251 DEB",
        "meta_object_id": "1993-036UA",
        "meta_epoch": "2025-12-19T22:37:11.351136",
        "meta_mean_motion": 14.32574731,
        "meta_eccentricity": 0.0070466,
        "meta_inclination": 73.9794,
        "meta_ra_of_asc_node": 40.2607,
        "meta_arg_of_pericenter": 213.2801,
        "meta_mean_anomaly": 211.0067,
        "meta_ephemeris_type": 0,
        "meta_classification_type": "U",
        "meta_norad_cat_id": 34481,
        "meta_element_set_no": 999,
        "meta_rev_at_epoch": 87552,
        "meta_bstar": 0.00044504,
        "meta_mean_motion_dot": 1.215e-05,
        "meta_mean_motion_ddot": 0,
        "tle_line1": "1 34481U 93036UA  25353.94249249  .00001215  00000+0  44504-3 0  9990",
        "tle_line2": "2 34481  73.9794  40.2607 0070466 213.2801 211.0067 14.32574731875521"
      },
      "geometry": {
        "type": "Point",
        "coordinates": [
          132.19465885202558,
          73.94154213242687
        ]
      }
    },
    {
      "type": "Feature",
      "properties": {
        "norad_id": 34482,
        "name": "COSMOS 2251 DEB",
        "group": "cosmos-2251-debris",
        "lat": -59.661072312655975,
        "lon": 57.29375812703822,
        "alt_km": 641.0079033280826,
        "timestamp": "2025-12-20T18:51:32.107691+00:00",
        "meta_object_name": "COSMOS 2251 DEB",
        "meta_object_id": "1993-036UB",
        "meta_epoch": "2025-12-20T00:30:01.656000",
        "meta_mean_motion": 14.69314639,
        "meta_eccentricity": 0.00445961,
        "meta_inclination": 74.0359,
        "meta_ra_of_asc_node": 209.4926,
        "meta_arg_of_pericenter": 268.1232,
        "meta_mean_anomaly": 251.3883,
        "meta_ephemeris_type": 0,
        "meta_classification_type": "U",
        "meta_norad_cat_id": 34482,
        "meta_element_set_no": 999,
        "meta_rev_at_epoch": 88294,
        "meta_bstar": 0.0010153192,
        "meta_mean_motion_dot": 6.059e-05,
        "meta_mean_motion_ddot": 0,
        "tle_line1": "1 34482U 93036UB  25354.02085250  .00006059  00000+0  10153-2 0  9994",
        "tle_line2": "2 34482  74.0359 209.4926 0044596 268.1232 251.3883 14.69314639882942"
      },
      "geometry": {
        "type": "Point",
        "coordinates": [
          57.29375812703822,
          -59.661072312655975
        ]
      }
    },
    {
      "type": "Feature",
      "properties": {
        "norad_id": 34544,
        "name": "COSMOS 2251 DEB",
        "group": "cosmos-2251-debris",
        "lat": 49.28486595318869,
        "lon": -149.40654567164083,
        "alt_km": 1326.2099918274316,
        "timestamp": "2025-12-20T18:51:32.107701+00:00",
        "meta_object_name": "COSMOS 2251 DEB",
        "meta_object_id": "1993-036UE",
        "meta_epoch": "2025-12-20T04:59:42.156384",
        "meta_mean_motion": 13.54668603,
        "meta_eccentricity": 0.03837722,
        "meta_inclination": 73.914,
        "meta_ra_of_asc_node": 191.9386,
        "meta_arg_of_pericenter": 219.0144,
        "meta_mean_anomaly": 258.1342,
        "meta_ephemeris_type": 0,
        "meta_classification_type": "U",
        "meta_norad_cat_id": 34544,
        "meta_element_set_no": 999,
        "meta_rev_at_epoch": 82983,
        "meta_bstar": 0.00030520959,
        "meta_mean_motion_dot": 3.11e-06,
        "meta_mean_motion_ddot": 0,
        "tle_line1": "1 34544U 93036UE  25354.20812681  .00000311  00000+0  30521-3 0  9996",
        "tle_line2": "2 34544  73.9140 191.9386 0383772 219.0144 258.1342 13.54668603829831"
      },
      "geometry": {
        "type": "Point",
        "coordinates": [
          -149.40654567164083,
          49.28486595318869
        ]
      }
    },
    {
      "type": "Feature",
      "properties": {
        "norad_id": 34546,
        "name": "COSMOS 2251 DEB",
        "group": "cosmos-2251-debris",
        "lat": 65.1673038616927,
        "lon": 15.953049798242995,
        "alt_km": 748.7946035815812,
        "timestamp": "2025-12-20T18:51:32.107712+00:00",
        "meta_object_name": "COSMOS 2251 DEB",
        "meta_object_id": "1993-036UG",
        "meta_epoch": "2025-12-20T12:00:54.081216",
        "meta_mean_motion": 14.45440409,
        "meta_eccentricity": 0.00220298,
        "meta_inclination": 74.0299,
        "meta_ra_of_asc_node": 234.7152,
        "meta_arg_of_pericenter": 307.6563,
        "meta_mean_anomaly": 118.229,
        "meta_ephemeris_type": 0,
        "meta_classification_type": "U",
        "meta_norad_cat_id": 34546,
        "meta_element_set_no": 999,
        "meta_rev_at_epoch": 88138,
        "meta_bstar": 0.00037061447,
        "meta_mean_motion_dot": 1.282e-05,
        "meta_mean_motion_ddot": 0,
        "tle_line1": "1 34546U 93036UG  25354.50062594  .00001282  00000+0  37061-3 0  9995",
        "tle_line2": "2 34546  74.0299 234.7152 0022029 307.6563 118.2290 14.45440409881380"
      },
      "geometry": {
        "type": "Point",
        "coordinates": [
          15.953049798242995,
          65.1673038616927
        ]
      }
    },
    {
      "type": "Feature",
      "properties": {
        "norad_id": 34547,
        "name": "COSMOS 2251 DEB",
        "group": "cosmos-2251-debris",
        "lat": -0.8643281608445499,
        "lon": 84.81234148518796,
        "alt_km": 667.0252492664467,
        "timestamp": "2025-12-20T18:51:32.107722+00:00",
        "meta_object_name": "COSMOS 2251 DEB",
        "meta_object_id": "1993-036UH",
        "meta_epoch": "2025-12-20T12:20:26.771136",
        "meta_mean_motion": 14.72500623,
        "meta_eccentricity": 0.00164886,
        "meta_inclination": 74.0319,
        "meta_ra_of_asc_node": 85.5884,
        "meta_arg_of_pericenter": 164.3583,
        "meta_mean_anomaly": 195.8102,
        "meta_ephemeris_type": 0,
        "meta_classification_type": "U",
        "meta_norad_cat_id": 34547,
        "meta_element_set_no": 999,
        "meta_rev_at_epoch": 88636,
        "meta_bstar": 0.0011309172,
        "meta_mean_motion_dot": 7.172e-05,
        "meta_mean_motion_ddot": 0,
        "tle_line1": "1 34547U 93036UH  25354.51419874  .00007172  00000+0  11309-2 0  9994",
        "tle_line2": "2 34547  74.0319  85.5884 0016488 164.3583 195.8102 14.72500623886361"
      },
      "geometry": {
        "type": "Point",
        "coordinates": [
          84.81234148518796,
          -0.8643281608445499
        ]
      }
    },
    {
      "type": "Feature",
      "properties": {
        "norad_id": 34553,
        "name": "COSMOS 2251 DEB",
        "group": "cosmos-2251-debris",
        "lat": -10.54220975435946,
        "lon": -0.3609673836566947,
        "alt_km": 697.925262317568,
        "timestamp": "2025-12-20T18:51:32.107732+00:00",
        "meta_object_name": "COSMOS 2251 DEB",
        "meta_object_id": "1993-036UP",
        "meta_epoch": "2025-12-20T13:17:54.956256",
        "meta_mean_motion": 14.57788032,
        "meta_eccentricity": 0.00191134,
        "meta_inclination": 74.0237,
        "meta_ra_of_asc_node": 177.0235,
        "meta_arg_of_pericenter": 253.7155,
        "meta_mean_anomaly": 161.966,
        "meta_ephemeris_type": 0,
        "meta_classification_type": "U",
        "meta_norad_cat_id": 34553,
        "meta_element_set_no": 999,
        "meta_rev_at_epoch": 88210,
        "meta_bstar": 0.00067850438,
        "meta_mean_motion_dot": 3.082e-05,
        "meta_mean_motion_ddot": 0,
        "tle_line1": "1 34553U 93036UP  25354.55410829  .00003082  00000+0  67850-3 0  9995",
        "tle_line2": "2 34553  74.0237 177.0235 0019113 253.7155 161.9660 14.57788032882106"
      },
      "geometry": {
        "type": "Point",
        "coordinates": [
          -0.3609673836566947,
          -10.54220975435946
        ]
      }
    },
    {
      "type": "Feature",
      "properties": {
        "norad_id": 34554,
        "name": "COSMOS 2251 DEB",
        "group": "cosmos-2251-debris",
        "lat": 72.91346621264329,
        "lon": -7.223657483658464,
        "alt_km": 760.4600345821927,
        "timestamp": "2025-12-20T18:51:32.107742+00:00",
        "meta_object_name": "COSMOS 2251 DEB",
        "meta_object_id": "1993-036UQ",
        "meta_epoch": "2025-12-20T05:48:54.109152",
        "meta_mean_motion": 14.37952739,
        "meta_eccentricity": 0.002333,
        "meta_inclination": 74.0392,
        "meta_ra_of_asc_node": 285.1768,
        "meta_arg_of_pericenter": 346.0878,
        "meta_mean_anomaly": 165.1635,
        "meta_ephemeris_type": 0,
        "meta_classification_type": "U",
        "meta_norad_cat_id": 34554,
        "meta_element_set_no": 999,
        "meta_rev_at_epoch": 87863,
        "meta_bstar": 0.00024183,
        "meta_mean_motion_dot": 7.07e-06,
        "meta_mean_motion_ddot": 0,
        "tle_line1": "1 34554U 93036UQ  25354.24229293  .00000707  00000+0  24183-3 0  9998",
        "tle_line2": "2 34554  74.0392 285.1768 0023330 346.0878 165.1635 14.37952739878631"
      },
      "geometry": {
        "type": "Point",
        "coordinates": [
          -7.223657483658464,
          72.91346621264329
        ]
      }
    }
  ]
}